{
  "norad_id": 67499,
  "name": "STARLINK-36558",
  "history": [
    {
      "epoch": "2026-04-16T16:43:53.230368Z",
      "apogee_km": 484.06059535322765,
      "perigee_km": 482.0434057870607,
      "latitude_deg": 4.159919618098053e-05,
      "longitude_deg": 4.035016021112182,
      "height_km": 482.87581000264976,
      "semi_major_axis_km": 6861.189000570144,
      "eccentricity": 0.000147,
      "inclination_deg": 43.0037,
      "raan_deg": 99.8479,
      "arg_perigee_deg": 267.349,
      "mean_anomaly_deg": 92.7194,
      "mean_motion_rev_day": 15.2757903
    },
    {
      "epoch": "2026-04-17T22:32:51.111744Z",
      "apogee_km": 484.0614446868476,
      "perigee_km": 481.93956930143486,
      "latitude_deg": -3.167678660954386e-05,
      "longitude_deg": -91.44693567344055,
      "height_km": 482.7835168735351,
      "semi_major_axis_km": 6861.137506994141,
      "eccentricity": 0.00015463,
      "inclination_deg": 43.0031,
      "raan_deg": 92.8317,
      "arg_perigee_deg": 269.6845,
      "mean_anomaly_deg": 90.3829,
      "mean_motion_rev_day": 15.27596227
    },
    {
      "epoch": "2026-04-18T15:48:34.118208Z",
      "apogee_km": 483.67444397930285,
      "perigee_km": 482.2816376260207,
      "latitude_deg": -2.767518064574206e-05,
      "longitude_deg": 4.852052114798509,
      "height_km": 482.7807359628552,
      "semi_major_axis_km": 6861.1150408026615,
      "eccentricity": 0.0001015,
      "inclination_deg": 43.0014,
      "raan_deg": 88.7688,
      "arg_perigee_deg": 267.8464,
      "mean_anomaly_deg": 92.2271,
      "mean_motion_rev_day": 15.2760373
    },
    {
      "epoch": "2026-04-19T07:30:07.636896Z",
      "apogee_km": 483.93415877887037,
      "perigee_km": 482.06230386506104,
      "latitude_deg": -4.5161886003104186e-05,
      "longitude_deg": 125.12659788345306,
      "height_km": 482.83302703742334,
      "semi_major_axis_km": 6861.135231321965,
      "eccentricity": 0.00013641,
      "inclination_deg": 43.0039,
      "raan_deg": 85.0775,
      "arg_perigee_deg": 266.4657,
      "mean_anomaly_deg": 93.6038,
      "mean_motion_rev_day": 15.27596987
    },
    {
      "epoch": "2026-04-19T23:11:41.879616Z",
      "apogee_km": 483.6611107238341,
      "perigee_km": 482.3670976255862,
      "latitude_deg": 1.0740889739710001e-05,
      "longitude_deg": -114.60650357937078,
      "height_km": 483.4136937076856,
      "semi_major_axis_km": 6861.15110417471,
      "eccentricity": 9.43e-05,
      "inclination_deg": 42.9985,
      "raan_deg": 81.3815,
      "arg_perigee_deg": 164.9092,
      "mean_anomaly_deg": 195.1788,
      "mean_motion_rev_day": 15.27591686
    },
    {
      "epoch": "2026-04-20T22:44:03.514560Z",
      "apogee_km": 484.8512059662298,
      "perigee_km": 481.23138552096134,
      "latitude_deg": 5.083465551220069e-05,
      "longitude_deg": -114.19813504118137,
      "height_km": 482.1732652824536,
      "semi_major_axis_km": 6861.178295743595,
      "eccentricity": 0.00026379,
      "inclination_deg": 43.0076,
      "raan_deg": 75.8467,
      "arg_perigee_deg": 290.9273,
      "mean_anomaly_deg": 69.1297,
      "mean_motion_rev_day": 15.27582605
    },
    {
      "epoch": "2026-04-22T13:57:58.071168Z",
      "apogee_km": 483.8136717380794,
      "perigee_km": 482.2973481933768,
      "latitude_deg": 8.185181724710255e-06,
      "longitude_deg": 6.481202491571468,
      "height_km": 482.9200516237628,
      "semi_major_axis_km": 6861.192509965728,
      "eccentricity": 0.0001105,
      "inclination_deg": 43.0025,
      "raan_deg": 66.6146,
      "arg_perigee_deg": 263.3475,
      "mean_anomaly_deg": 96.7251,
      "mean_motion_rev_day": 15.27577858
    },
    {
      "epoch": "2026-04-23T13:30:18.675360Z",
      "apogee_km": 483.9432971341321,
      "perigee_km": 482.0906483384142,
      "latitude_deg": -1.536867747256996e-05,
      "longitude_deg": 6.890509851051455,
      "height_km": 482.91191438403115,
      "semi_major_axis_km": 6861.153972736273,
      "eccentricity": 0.00013501,
      "inclination_deg": 43.0033,
      "raan_deg": 61.0765,
      "arg_perigee_deg": 262.6853,
      "mean_anomaly_deg": 97.3845,
      "mean_motion_rev_day": 15.27590728
    },
    {
      "epoch": "2026-04-24T20:53:25.787904Z",
      "apogee_km": 483.3749026638852,
      "perigee_km": 482.6503652625397,
      "latitude_deg": 5.672392918150667e-05,
      "longitude_deg": -112.56369927711508,
      "height_km": 482.72164001248797,
      "semi_major_axis_km": 6861.149633963212,
      "eccentricity": 5.28e-05,
      "inclination_deg": 43.0026,
      "raan_deg": 53.6908,
      "arg_perigee_deg": 280.6908,
      "mean_anomaly_deg": 79.3885,
      "mean_motion_rev_day": 15.27592177
    },
    {
      "epoch": "2026-04-25T12:35:00.142080Z",
      "apogee_km": 483.6777775908304,
      "perigee_km": 482.4949026869908,
      "latitude_deg": 5.1009124395191744e-05,
      "longitude_deg": 7.706468554503229,
      "height_km": 482.8114396289865,
      "semi_major_axis_km": 6861.22334013891,
      "eccentricity": 8.62e-05,
      "inclination_deg": 43.0048,
      "raan_deg": 49.9986,
      "arg_perigee_deg": 275.0121,
      "mean_anomaly_deg": 85.0633,
      "mean_motion_rev_day": 15.27567562
    },
    {
      "epoch": "2026-04-26T19:58:07.293504Z",
      "apogee_km": 483.98253608057894,
      "perigee_km": 482.20437959512583,
      "latitude_deg": -1.597307525358937e-05,
      "longitude_deg": -111.74714931757048,
      "height_km": 482.8399905552099,
      "semi_major_axis_km": 6861.230457837852,
      "eccentricity": 0.00012958,
      "inclination_deg": 43.0031,
      "raan_deg": 42.6138,
      "arg_perigee_deg": 271.9617,
      "mean_anomaly_deg": 88.1086,
      "mean_motion_rev_day": 15.27565185
    },
    {
      "epoch": "2026-04-27T19:30:28.811808Z",
      "apogee_km": 483.7041838666373,
      "perigee_km": 482.44034911974813,
      "latitude_deg": 6.131164220954961e-05,
      "longitude_deg": -111.34205088145237,
      "height_km": 482.8567118691006,
      "semi_major_axis_km": 6861.209266493192,
      "eccentricity": 9.21e-05,
      "inclination_deg": 43.0027,
      "raan_deg": 37.0752,
      "arg_perigee_deg": 269.2871,
      "mean_anomaly_deg": 90.7876,
      "mean_motion_rev_day": 15.27572262
    },
    {
      "epoch": "2026-04-28T11:12:02.619072Z",
      "apogee_km": 484.39346608829237,
      "perigee_km": 481.65997846133814,
      "latitude_deg": 1.3683502907419633e-05,
      "longitude_deg": 8.929557931269779,
      "height_km": 482.886385525757,
      "semi_major_axis_km": 6861.163722274815,
      "eccentricity": 0.0001992,
      "inclination_deg": 43.0025,
      "raan_deg": 33.3822,
      "arg_perigee_deg": 266.5506,
      "mean_anomaly_deg": 93.5118,
      "mean_motion_rev_day": 15.27587472
    },
    {
      "epoch": "2026-04-29T10:44:23.573184Z",
      "apogee_km": 484.15358284212834,
      "perigee_km": 481.8652532887754,
      "latitude_deg": -4.192761657734914e-05,
      "longitude_deg": 9.334971619688451,
      "height_km": 482.5498880704744,
      "semi_major_axis_km": 6861.146418065452,
      "eccentricity": 0.00016676,
      "inclination_deg": 43.0012,
      "raan_deg": 27.8417,
      "arg_perigee_deg": 281.9337,
      "mean_anomaly_deg": 78.1327,
      "mean_motion_rev_day": 15.27593251
    },
    {
      "epoch": "2026-04-30T10:16:44.496192Z",
      "apogee_km": 483.77860617266015,
      "perigee_km": 482.28040185484406,
      "latitude_deg": -1.7809334010237374e-05,
      "longitude_deg": 9.74239973708141,
      "height_km": 482.6835583124022,
      "semi_major_axis_km": 6861.166504013752,
      "eccentricity": 0.00010918,
      "inclination_deg": 43.0061,
      "raan_deg": 22.303,
      "arg_perigee_deg": 279.4561,
      "mean_anomaly_deg": 80.6167,
      "mean_motion_rev_day": 15.27586543
    },
    {
      "epoch": "2026-05-02T09:21:26.064000Z",
      "apogee_km": 483.5508314191975,
      "perigee_km": 482.61633317588894,
      "latitude_deg": 2.319126102483539e-05,
      "longitude_deg": 10.560808256014086,
      "height_km": 482.84160598970215,
      "semi_major_axis_km": 6861.220582297543,
      "eccentricity": 6.81e-05,
      "inclination_deg": 43.0032,
      "raan_deg": 11.228,
      "arg_perigee_deg": 272.2574,
      "mean_anomaly_deg": 87.82,
      "mean_motion_rev_day": 15.27568483
    },
    {
      "epoch": "2026-05-03T18:18:43.986240Z",
      "apogee_km": 483.89846719691286,
      "perigee_km": 482.1063375850081,
      "latitude_deg": 8.588115981303147e-06,
      "longitude_deg": -132.8703998422404,
      "height_km": 482.9807561734123,
      "semi_major_axis_km": 6861.13940239096,
      "eccentricity": 0.0001306,
      "inclination_deg": 43.004,
      "raan_deg": 3.4749,
      "arg_perigee_deg": 257.0149,
      "mean_anomaly_deg": 103.0557,
      "mean_motion_rev_day": 15.27595594
    },
    {
      "epoch": "2026-05-04T08:26:07.944576Z",
      "apogee_km": 483.72041448706386,
      "perigee_km": 482.2517224830244,
      "latitude_deg": -1.2661486494485923e-05,
      "longitude_deg": 11.370124917857408,
      "height_km": 482.53331401958326,
      "semi_major_axis_km": 6861.123068485044,
      "eccentricity": 0.00010703,
      "inclination_deg": 43.0068,
      "raan_deg": 0.1453,
      "arg_perigee_deg": 288.2457,
      "mean_anomaly_deg": 71.8278,
      "mean_motion_rev_day": 15.27601049
    },
    {
      "epoch": "2026-05-05T15:49:15.159072Z",
      "apogee_km": 483.33933893377343,
      "perigee_km": 482.6202938914148,
      "latitude_deg": 1.2388931065636835e-05,
      "longitude_deg": -108.08046363610043,
      "height_km": 482.63948105823096,
      "semi_major_axis_km": 6861.116816412594,
      "eccentricity": 5.24e-05,
      "inclination_deg": 43.0027,
      "raan_deg": 352.7637,
      "arg_perigee_deg": 288.9152,
      "mean_anomaly_deg": 71.1643,
      "mean_motion_rev_day": 15.27603137
    }
  ]
}